QIANFAN-73              
1 63159U 25046A   25337.49541653  .00000040  00000+0  42769-4 0  9993
2 63159  88.9753 320.9801 0015865 144.5699 215.6509 13.50974694 46165
QIANFAN-74              
1 63160U 25046B   25337.47883205  .00000051  00000+0  59987-4 0  9997
2 63160  88.9754 320.8705 0001969  82.0944 278.0431 13.50976857 46226
QIANFAN-75              
1 63161U 25046C   25337.46610249  .00000095  00000+0  12829-3 0  9994
2 63161  88.9757 321.1047 0016814 147.7083 212.5101 13.50973948 46091
QIANFAN-76              
1 63162U 25046D   25337.46264979 -.00000115  00000+0 -19665-3 0  9990
2 63162  88.9752 321.0866 0014388 147.7079 212.4955 13.50962589 46101
QIANFAN-77              
1 63163U 25046E   25337.43985750  .00000220  00000+0  15023-3 0  9994
2 63163  88.9756 319.1719 0016761 106.9485 253.3531 13.96079849 47154
QIANFAN-78              
1 63164U 25046F   25337.42955422  .00000040  00000+0  42642-4 0  9995
2 63164  88.9754 320.9539 0015728 150.3427 209.8619 13.50974849 46172
QIANFAN-79              
1 63165U 25046G   25337.45822744  .00000054  00000+0  64255-4 0  9998
2 63165  88.9758 321.0581 0015471 148.4990 211.7090 13.50976306 46124
QIANFAN-80              
1 63166U 25046H   25337.47472816  .00000116  00000+0  16007-3 0  9992
2 63166  88.9755 320.7634 0014320 152.0051 208.1873 13.50973667 46281
